STARLINK-37028          
1 68270U 26055J   26090.83335647 -.01220393  00000+0 -47781-2 0  9997
2 68270  53.1573 226.3229 0000871  55.8238 308.4398 15.88643010  3196
STARLINK-37029          
1 68271U 26055K   26090.83335647 -.01216979  00000+0 -47732-2 0  9999
2 68271  53.1572 226.3321 0000775  57.5860 302.4251 15.88602314  3196
STARLINK-36974          
1 68272U 26055L   26090.83335647 -.01233482  00000+0 -48347-2 0  9991
2 68272  53.1572 226.3128 0000883  55.8071 313.3810 15.88647356  3194
STARLINK-37019          
1 68273U 26055M   26090.83335647 -.01237293  00000+0 -48346-2 0  9995
2 68273  53.1573 226.3041 0000854  58.2250 314.8513 15.88716304  3190
STARLINK-37129          
1 68274U 26055N   26090.83335647 -.01237965  00000+0 -48267-2 0  9994
2 68274  53.1570 226.2955 0000918  58.9506 318.3885 15.88759938  3194
STARLINK-37123          
1 68275U 26055P   26090.83335647 -.01242475  00000+0 -48278-2 0  9999
2 68275  53.1573 226.2878 0000858  55.5157 325.6203 15.88836851  3195
STARLINK-37125          
1 68276U 26055Q   26090.83335647 -.01248412  00000+0 -48488-2 0  9990
2 68276  53.1570 226.2779 0000947  61.0823 324.8556 15.88856139  3197
STARLINK-36989          
1 68277U 26055R   26090.83335647 -.01281439  00000+0 -49538-2 0  9994
2 68277  53.1570 226.2510 0000900  61.8548 337.0770 15.89015131  3196
STARLINK-36982          
1 68278U 26055S   26090.83335647 -.01261595  00000+0 -48851-2 0  9993
2 68278  53.1570 226.2603 0000844  60.2005 334.5956 15.88943565  3196
STARLINK-36934          
1 68279U 26055T   26090.83335647 -.01253058  00000+0 -48632-2 0  9996
2 68279  53.1569 226.2686 0000965  59.1643 331.4712 15.88880222  3191
STARLINK-37070          
1 68280U 26055U   26090.83335647 -.01354537  00000+0 -52601-2 0  9993
2 68280  53.1572 226.2413 0001101  49.4384 354.2164 15.89071535  3196
STARLINK-37134          
1 68281U 26055V   26090.83335647 -.01457098  00000+0 -56928-2 0  9996
2 68281  53.1567 226.2228 0000899  58.5960 353.8913 15.89166932  3192
