CCSDS_OMM_VERS = 2.0
CREATION_DATE  = 
ORIGINATOR     = 

OBJECT_NAME    = STARLINK-37028
OBJECT_ID      = 2026-055J
CENTER_NAME    = EARTH
REF_FRAME      = TEME
TIME_SYSTEM    = UTC
MEAN_ELEMENT_THEORY = SGP/SGP4

EPOCH          = 2026-03-31T20:00:01.999008
MEAN_MOTION    = 15.88643010
ECCENTRICITY   = .0000871
INCLINATION    = 53.1573
RA_OF_ASC_NODE = 226.3229
ARG_OF_PERICENTER = 55.8238
MEAN_ANOMALY   = 308.4398

EPHEMERIS_TYPE = 0
CLASSIFICATION_TYPE = U
NORAD_CAT_ID   = 68270
ELEMENT_SET_NO = 999
REV_AT_EPOCH   = 319
BSTAR          = -.47781E-2
MEAN_MOTION_DOT = -.1220393E-1
MEAN_MOTION_DDOT = 0

CCSDS_OMM_VERS = 2.0
CREATION_DATE  = 
ORIGINATOR     = 

OBJECT_NAME    = STARLINK-37029
OBJECT_ID      = 2026-055K
CENTER_NAME    = EARTH
REF_FRAME      = TEME
TIME_SYSTEM    = UTC
MEAN_ELEMENT_THEORY = SGP/SGP4

EPOCH          = 2026-03-31T20:00:01.999008
MEAN_MOTION    = 15.88602314
ECCENTRICITY   = .0000775
INCLINATION    = 53.1572
RA_OF_ASC_NODE = 226.3321
ARG_OF_PERICENTER = 57.5860
MEAN_ANOMALY   = 302.4251

EPHEMERIS_TYPE = 0
CLASSIFICATION_TYPE = U
NORAD_CAT_ID   = 68271
ELEMENT_SET_NO = 999
REV_AT_EPOCH   = 319
BSTAR          = -.47732E-2
MEAN_MOTION_DOT = -.1216979E-1
MEAN_MOTION_DDOT = 0

CCSDS_OMM_VERS = 2.0
CREATION_DATE  = 
ORIGINATOR     = 

OBJECT_NAME    = STARLINK-36974
OBJECT_ID      = 2026-055L
CENTER_NAME    = EARTH
REF_FRAME      = TEME
TIME_SYSTEM    = UTC
MEAN_ELEMENT_THEORY = SGP/SGP4

EPOCH          = 2026-03-31T20:00:01.999008
MEAN_MOTION    = 15.88647356
ECCENTRICITY   = .0000883
INCLINATION    = 53.1572
RA_OF_ASC_NODE = 226.3128
ARG_OF_PERICENTER = 55.8071
MEAN_ANOMALY   = 313.3810

EPHEMERIS_TYPE = 0
CLASSIFICATION_TYPE = U
NORAD_CAT_ID   = 68272
ELEMENT_SET_NO = 999
REV_AT_EPOCH   = 319
BSTAR          = -.48347E-2
MEAN_MOTION_DOT = -.1233482E-1
MEAN_MOTION_DDOT = 0

CCSDS_OMM_VERS = 2.0
CREATION_DATE  = 
ORIGINATOR     = 

OBJECT_NAME    = STARLINK-37019
OBJECT_ID      = 2026-055M
CENTER_NAME    = EARTH
REF_FRAME      = TEME
TIME_SYSTEM    = UTC
MEAN_ELEMENT_THEORY = SGP/SGP4

EPOCH          = 2026-03-31T20:00:01.999008
MEAN_MOTION    = 15.88716304
ECCENTRICITY   = .0000854
INCLINATION    = 53.1573
RA_OF_ASC_NODE = 226.3041
ARG_OF_PERICENTER = 58.2250
MEAN_ANOMALY   = 314.8513

EPHEMERIS_TYPE = 0
CLASSIFICATION_TYPE = U
NORAD_CAT_ID   = 68273
ELEMENT_SET_NO = 999
REV_AT_EPOCH   = 319
BSTAR          = -.48346E-2
MEAN_MOTION_DOT = -.1237293E-1
MEAN_MOTION_DDOT = 0

CCSDS_OMM_VERS = 2.0
CREATION_DATE  = 
ORIGINATOR     = 

OBJECT_NAME    = STARLINK-37129
OBJECT_ID      = 2026-055N
CENTER_NAME    = EARTH
REF_FRAME      = TEME
TIME_SYSTEM    = UTC
MEAN_ELEMENT_THEORY = SGP/SGP4

EPOCH          = 2026-03-31T20:00:01.999008
MEAN_MOTION    = 15.88759938
ECCENTRICITY   = .0000918
INCLINATION    = 53.1570
RA_OF_ASC_NODE = 226.2955
ARG_OF_PERICENTER = 58.9506
MEAN_ANOMALY   = 318.3885

EPHEMERIS_TYPE = 0
CLASSIFICATION_TYPE = U
NORAD_CAT_ID   = 68274
ELEMENT_SET_NO = 999
REV_AT_EPOCH   = 319
BSTAR          = -.48267E-2
MEAN_MOTION_DOT = -.1237965E-1
MEAN_MOTION_DDOT = 0

CCSDS_OMM_VERS = 2.0
CREATION_DATE  = 
ORIGINATOR     = 

OBJECT_NAME    = STARLINK-37123
OBJECT_ID      = 2026-055P
CENTER_NAME    = EARTH
REF_FRAME      = TEME
TIME_SYSTEM    = UTC
MEAN_ELEMENT_THEORY = SGP/SGP4

EPOCH          = 2026-03-31T20:00:01.999008
MEAN_MOTION    = 15.88836851
ECCENTRICITY   = .0000858
INCLINATION    = 53.1573
RA_OF_ASC_NODE = 226.2878
ARG_OF_PERICENTER = 55.5157
MEAN_ANOMALY   = 325.6203

EPHEMERIS_TYPE = 0
CLASSIFICATION_TYPE = U
NORAD_CAT_ID   = 68275
ELEMENT_SET_NO = 999
REV_AT_EPOCH   = 319
BSTAR          = -.48278E-2
MEAN_MOTION_DOT = -.1242475E-1
MEAN_MOTION_DDOT = 0

CCSDS_OMM_VERS = 2.0
CREATION_DATE  = 
ORIGINATOR     = 

OBJECT_NAME    = STARLINK-37125
OBJECT_ID      = 2026-055Q
CENTER_NAME    = EARTH
REF_FRAME      = TEME
TIME_SYSTEM    = UTC
MEAN_ELEMENT_THEORY = SGP/SGP4

EPOCH          = 2026-03-31T20:00:01.999008
MEAN_MOTION    = 15.88856139
ECCENTRICITY   = .0000947
INCLINATION    = 53.1570
RA_OF_ASC_NODE = 226.2779
ARG_OF_PERICENTER = 61.0823
MEAN_ANOMALY   = 324.8556

EPHEMERIS_TYPE = 0
CLASSIFICATION_TYPE = U
NORAD_CAT_ID   = 68276
ELEMENT_SET_NO = 999
REV_AT_EPOCH   = 319
BSTAR          = -.48488E-2
MEAN_MOTION_DOT = -.1248412E-1
MEAN_MOTION_DDOT = 0

CCSDS_OMM_VERS = 2.0
CREATION_DATE  = 
ORIGINATOR     = 

OBJECT_NAME    = STARLINK-36989
OBJECT_ID      = 2026-055R
CENTER_NAME    = EARTH
REF_FRAME      = TEME
TIME_SYSTEM    = UTC
MEAN_ELEMENT_THEORY = SGP/SGP4

EPOCH          = 2026-03-31T20:00:01.999008
MEAN_MOTION    = 15.89015131
ECCENTRICITY   = .00009
INCLINATION    = 53.1570
RA_OF_ASC_NODE = 226.2510
ARG_OF_PERICENTER = 61.8548
MEAN_ANOMALY   = 337.0770

EPHEMERIS_TYPE = 0
CLASSIFICATION_TYPE = U
NORAD_CAT_ID   = 68277
ELEMENT_SET_NO = 999
REV_AT_EPOCH   = 319
BSTAR          = -.49538E-2
MEAN_MOTION_DOT = -.1281439E-1
MEAN_MOTION_DDOT = 0

CCSDS_OMM_VERS = 2.0
CREATION_DATE  = 
ORIGINATOR     = 

OBJECT_NAME    = STARLINK-36982
OBJECT_ID      = 2026-055S
CENTER_NAME    = EARTH
REF_FRAME      = TEME
TIME_SYSTEM    = UTC
MEAN_ELEMENT_THEORY = SGP/SGP4

EPOCH          = 2026-03-31T20:00:01.999008
MEAN_MOTION    = 15.88943565
ECCENTRICITY   = .0000844
INCLINATION    = 53.1570
RA_OF_ASC_NODE = 226.2603
ARG_OF_PERICENTER = 60.2005
MEAN_ANOMALY   = 334.5956

EPHEMERIS_TYPE = 0
CLASSIFICATION_TYPE = U
NORAD_CAT_ID   = 68278
ELEMENT_SET_NO = 999
REV_AT_EPOCH   = 319
BSTAR          = -.48851E-2
MEAN_MOTION_DOT = -.1261595E-1
MEAN_MOTION_DDOT = 0

CCSDS_OMM_VERS = 2.0
CREATION_DATE  = 
ORIGINATOR     = 

OBJECT_NAME    = STARLINK-36934
OBJECT_ID      = 2026-055T
CENTER_NAME    = EARTH
REF_FRAME      = TEME
TIME_SYSTEM    = UTC
MEAN_ELEMENT_THEORY = SGP/SGP4

EPOCH          = 2026-03-31T20:00:01.999008
MEAN_MOTION    = 15.88880222
ECCENTRICITY   = .0000965
INCLINATION    = 53.1569
RA_OF_ASC_NODE = 226.2686
ARG_OF_PERICENTER = 59.1643
MEAN_ANOMALY   = 331.4712

EPHEMERIS_TYPE = 0
CLASSIFICATION_TYPE = U
NORAD_CAT_ID   = 68279
ELEMENT_SET_NO = 999
REV_AT_EPOCH   = 319
BSTAR          = -.48632E-2
MEAN_MOTION_DOT = -.1253058E-1
MEAN_MOTION_DDOT = 0

CCSDS_OMM_VERS = 2.0
CREATION_DATE  = 
ORIGINATOR     = 

OBJECT_NAME    = STARLINK-37070
OBJECT_ID      = 2026-055U
CENTER_NAME    = EARTH
REF_FRAME      = TEME
TIME_SYSTEM    = UTC
MEAN_ELEMENT_THEORY = SGP/SGP4

EPOCH          = 2026-03-31T20:00:01.999008
MEAN_MOTION    = 15.89071535
ECCENTRICITY   = .0001101
INCLINATION    = 53.1572
RA_OF_ASC_NODE = 226.2413
ARG_OF_PERICENTER = 49.4384
MEAN_ANOMALY   = 354.2164

EPHEMERIS_TYPE = 0
CLASSIFICATION_TYPE = U
NORAD_CAT_ID   = 68280
ELEMENT_SET_NO = 999
REV_AT_EPOCH   = 319
BSTAR          = -.52601E-2
MEAN_MOTION_DOT = -.1354537E-1
MEAN_MOTION_DDOT = 0

CCSDS_OMM_VERS = 2.0
CREATION_DATE  = 
ORIGINATOR     = 

OBJECT_NAME    = STARLINK-37134
OBJECT_ID      = 2026-055V
CENTER_NAME    = EARTH
REF_FRAME      = TEME
TIME_SYSTEM    = UTC
MEAN_ELEMENT_THEORY = SGP/SGP4

EPOCH          = 2026-03-31T20:00:01.999008
MEAN_MOTION    = 15.89166932
ECCENTRICITY   = .0000899
INCLINATION    = 53.1567
RA_OF_ASC_NODE = 226.2228
ARG_OF_PERICENTER = 58.5960
MEAN_ANOMALY   = 353.8913

EPHEMERIS_TYPE = 0
CLASSIFICATION_TYPE = U
NORAD_CAT_ID   = 68281
ELEMENT_SET_NO = 999
REV_AT_EPOCH   = 319
BSTAR          = -.56928E-2
MEAN_MOTION_DOT = -.1457098E-1
MEAN_MOTION_DDOT = 0

